0 FENGYUN 1C DEB
1 30553U 99025AKT 13282.11600457  .00003268  00000-0  14129-2 0  7863
2 30553 099.1195 031.2257 0043446 196.1105 249.5612 14.24605120346328
0 FENGYUN 1C DEB
1 30553U 99025AKT 13283.59871720  .00003206  00000-0  13863-2 0  7876
2 30553 099.1193 032.7646 0043495 191.9740 293.6716 14.24614402346537
0 FENGYUN 1C DEB
1 30553U 99025AKT 13286.11775493  .00002859  00000-0  12382-2 0  7897
2 30553 099.1198 035.3795 0043577 185.0952 252.5423 14.24627692346899
0 FENGYUN 1C DEB
1 30553U 99025AKT 13287.17863955  .00003239  00000-0  13996-2 0  7902
2 30553 099.1203 036.4808 0043585 182.1665 293.3581 14.24631710347043
0 FENGYUN 1C DEB
1 30553U 99025AKT 13288.86061586  .00003706  00000-0  15981-2 0  7915
2 30553 099.1208 038.2271 0043598 177.5281 279.5253 14.24646510347280
0 FENGYUN 1C DEB
1 30553U 99025AKT 13290.13012794  .00004301  00000-0  18510-2 0  7929
2 30553 099.1209 039.5450 0043572 173.9216 310.4951 14.24653892347465
0 FENGYUN 1C DEB
1 30553U 99025AKT 13291.31260279  .00003595  00000-0  15505-2 0  7939
2 30553 099.1210 040.7726 0043600 170.6595 255.0110 14.24663427347638
0 FENGYUN 1C DEB
1 30553U 99025AKT 13292.86839400  .00003878  00000-0  16703-2 0  7944
2 30553 099.1210 042.3880 0043602 166.3989 314.1691 14.24673664347857
0 FENGYUN 1C DEB
1 30553U 99025AKT 13294.19257507  .00004539  00000-0  19509-2 0  7957
2 30553 099.1208 043.7628 0043590 162.7437 265.5484 14.24682316348048
0 FENGYUN 1C DEB
1 30553U 99025AKT 13295.24383668  .00004490  00000-0  19299-2 0  7965
2 30553 099.1206 044.8544 0043565 159.7979 257.2681 14.24690410348191
